0 COSMOS 1275 DEB
1 12949U 81053ED  13282.40720418  .00000446  00000-0  34313-3 0  7005
2 12949 082.8454 156.9255 0033417 034.0217 020.3415 13.90766511615967
0 COSMOS 1275 DEB
1 12949U 81053ED  13283.42703943  .00000448  00000-0  34501-3 0  7014
2 12949 082.8452 156.1393 0033358 031.2006 086.3168 13.90767024616103
0 COSMOS 1275 DEB
1 12949U 81053ED  13285.80384426  .00000467  00000-0  36007-3 0  7035
2 12949 082.8448 154.3068 0033213 024.5396 106.2830 13.90768769616435
0 COSMOS 1275 DEB
1 12949U 81053ED  13286.81123990  .00000493  00000-0  38087-3 0  7044
2 12949 082.8446 153.5301 0033154 021.7199 110.0196 13.90769733616573
0 COSMOS 1275 DEB
1 12949U 81053ED  13287.81843725  .00000527  00000-0  40764-3 0  7054
2 12949 082.8444 152.7535 0033087 018.8901 112.7772 13.90771333616718
0 COSMOS 1275 DEB
1 12949U 81053ED  13288.82271998  .00000553  00000-0  42885-3 0  7069
2 12949 082.8442 151.9791 0033019 016.0821 100.9348 13.90772440616850
0 COSMOS 1275 DEB
1 12949U 81053ED  13289.83012778  .00000520  00000-0  40238-3 0  7075
2 12949 082.8440 151.2023 0032955 013.2471 104.7605 13.90773530616991
0 COSMOS 1275 DEB
1 12949U 81053ED  13291.06154679  .00000502  00000-0  38765-3 0  7083
2 12949 082.8439 150.2527 0032872 009.7226 150.2156 13.90774965617163
0 COSMOS 1275 DEB
1 12949U 81053ED  13292.40731170  .00000518  00000-0  40033-3 0  7098
2 12949 082.8439 149.2150 0032782 005.9130 048.1417 13.90776452617354
0 COSMOS 1275 DEB
1 12949U 81053ED  13293.78913184  .00000547  00000-0  42405-3 0  7106
2 12949 082.8439 148.1494 0032686 001.9926 126.6052 13.90777937617542
0 COSMOS 1275 DEB
1 12949U 81053ED  13294.79414447  .00000578  00000-0  44820-3 0  7114
2 12949 082.8438 147.3744 0032612 359.1396 118.4847 13.90779075617689
0 COSMOS 1275 DEB
1 12949U 81053ED  13296.09032681  .00000583  00000-0  45233-3 0  7121
2 12949 082.8437 146.3747 0032524 355.4206 128.2313 13.90780406617868
